{"type": "FeatureCollection", "features": [ {"type": "Feature", "properties": {"norad_id": 28649, "name": "IRS-P5 (CARTOSAT-1)", "group": "resource", "lat": -79.59840571435048, "lon": 159.91803956365519, "alt_km": 604.2117544384964, "timestamp": "2025-12-26T08:37:54.226407+00:00", "meta": {"OBJECT_NAME": "IRS-P5 (CARTOSAT-1)", "OBJECT_ID": "2005-017A", "EPOCH": "2025-12-26T01:00:39.645792", "MEAN_MOTION": 14.90447527, "ECCENTRICITY": 4.71e-05, "INCLINATION": 97.5483, "RA_OF_ASC_NODE": 25.865, "ARG_OF_PERICENTER": 68.6931, "MEAN_ANOMALY": 291.4338, "EPHEMERIS_TYPE": 0, "CLASSIFICATION_TYPE": "U", "NORAD_CAT_ID": 28649, "ELEMENT_SET_NO": 999, "REV_AT_EPOCH": 11802, "BSTAR": 0.00016417, "MEAN_MOTION_DOT": 1.548e-05, "MEAN_MOTION_DDOT": 0}, "tle": {"line1": "1 28649U 05017A   25360.04212553  .00001548  00000+0  16417-3 0  9999", "line2": "2 28649  97.5483  25.8650 0000471  68.6931 291.4338 14.90447527118023"}}, "geometry": {"type": "Point", "coordinates": [159.91803956365519, -79.59840571435048]}}, {"type": "Feature", "properties": {"norad_id": 28893, "name": "SINAH 1", "group": "resource", "lat": 40.83215492138126, "lon": 121.74138610443246, "alt_km": 670.8720098557023, "timestamp": "2025-12-26T08:37:54.226418+00:00", "meta": {"OBJECT_NAME": "SINAH 1", "OBJECT_ID": "2005-043D", "EPOCH": "2025-12-25T22:36:05.479776", "MEAN_MOTION": 14.63975984, "ECCENTRICITY": 0.00157332, "INCLINATION": 98.261, "RA_OF_ASC_NODE": 128.5349, "ARG_OF_PERICENTER": 98.5336, "MEAN_ANOMALY": 261.765, "EPHEMERIS_TYPE": 0, "CLASSIFICATION_TYPE": "U", "NORAD_CAT_ID": 28893, "ELEMENT_SET_NO": 999, "REV_AT_EPOCH": 7517, "BSTAR": 9.6905896e-05, "MEAN_MOTION_DOT": 4.59e-06, "MEAN_MOTION_DDOT": 0}, "tle": {"line1": "1 28893U 05043D   25359.94173009  .00000459  00000+0  96906-4 0  9990", "line2": "2 28893  98.2610 128.5349 0015733  98.5336 261.7650 14.63975984 75176"}}, "geometry": {"type": "Point", "coordinates": [121.74138610443246, 40.83215492138126]}}, {"type": "Feature", "properties": {"norad_id": 29079, "name": "EROS B", "group": "resource", "lat": -42.08991455940601, "lon": -69.06592573316136, "alt_km": 357.3959293226735, "timestamp": "2025-12-26T08:37:54.226428+00:00", "meta": {"OBJECT_NAME": "EROS B", "OBJECT_ID": "2006-014A", "EPOCH": "2025-12-26T04:38:04.460352", "MEAN_MOTION": 15.72780029, "ECCENTRICITY": 0.0004634, "INCLINATION": 97.3451, "RA_OF_ASC_NODE": 117.4496, "ARG_OF_PERICENTER": 312.044, "MEAN_ANOMALY": 48.0429, "EPHEMERIS_TYPE": 0, "CLASSIFICATION_TYPE": "U", "NORAD_CAT_ID": 29079, "ELEMENT_SET_NO": 999, "REV_AT_EPOCH": 9291, "BSTAR": 0.0015606, "MEAN_MOTION_DOT": 0.00215341, "MEAN_MOTION_DDOT": 0}, "tle": {"line1": "1 29079U 06014A   25360.19310718  .00215341  00000+0  15606-2 0  9999", "line2": "2 29079  97.3451 117.4496 0004634 312.0440  48.0429 15.72780029 92910"}}, "geometry": {"type": "Point", "coordinates": [-69.06592573316136, -42.08991455940601]}}, {"type": "Feature", "properties": {"norad_id": 29228, "name": "RESURS-DK 1", "group": "resource", "lat": -10.585793822598465, "lon": -109.44373344219352, "alt_km": 530.3296426708112, "timestamp": "2025-12-26T08:37:54.226439+00:00", "meta": {"OBJECT_NAME": "RESURS-DK 1", "OBJECT_ID": "2006-021A", "EPOCH": "2025-12-25T12:44:18.731040", "MEAN_MOTION": 15.12230969, "ECCENTRICITY": 0.0006922, "INCLINATION": 69.9336, "RA_OF_ASC_NODE": 68.7803, "ARG_OF_PERICENTER": 247.3291, "MEAN_ANOMALY": 112.7143, "EPHEMERIS_TYPE": 0, "CLASSIFICATION_TYPE": "U", "NORAD_CAT_ID": 29228, "ELEMENT_SET_NO": 999, "REV_AT_EPOCH": 7631, "BSTAR": 0.00018237, "MEAN_MOTION_DOT": 3.053e-05, "MEAN_MOTION_DDOT": 0}, "tle": {"line1": "1 29228U 06021A   25359.53077235  .00003053  00000+0  18237-3 0  9992", "line2": "2 29228  69.9336  68.7803 0006922 247.3291 112.7143 15.12230969 76314"}}, "geometry": {"type": "Point", "coordinates": [-109.44373344219352, -10.585793822598465]}}, {"type": "Feature", "properties": {"norad_id": 29268, "name": "ARIRANG-2 (KOMPSAT-2)", "group": "resource", "lat": -27.181458327987805, "lon": -167.78142835352708, "alt_km": 681.319188154981, "timestamp": "2025-12-26T08:37:54.226450+00:00", "meta": {"OBJECT_NAME": "ARIRANG-2 (KOMPSAT-2)", "OBJECT_ID": "2006-031A", "EPOCH": "2025-12-26T04:24:16.356096", "MEAN_MOTION": 14.6450491, "ECCENTRICITY": 0.001312, "INCLINATION": 97.8259, "RA_OF_ASC_NODE": 188.0011, "ARG_OF_PERICENTER": 262.8073, "MEAN_ANOMALY": 221.6527, "EPHEMERIS_TYPE": 0, "CLASSIFICATION_TYPE": "U", "NORAD_CAT_ID": 29268, "ELEMENT_SET_NO": 999, "REV_AT_EPOCH": 3615, "BSTAR": 6.6679e-05, "MEAN_MOTION_DOT": 3.09e-06, "MEAN_MOTION_DDOT": 0}, "tle": {"line1": "1 29268U 06031A   25360.18352264  .00000309  00000+0  66679-4 0  9993", "line2": "2 29268  97.8259 188.0011 0013120 262.8073 221.6527 14.64504910 36157"}}, "geometry": {"type": "Point", "coordinates": [-167.78142835352708, -27.181458327987805]}}, {"type": "Feature", "properties": {"norad_id": 29709, "name": "LAPAN-TUBSAT", "group": "resource", "lat": -44.01570320275976, "lon": 162.86087583048345, "alt_km": 627.1307353488464, "timestamp": "2025-12-26T08:37:54.226460+00:00", "meta": {"OBJECT_NAME": "LAPAN-TUBSAT", "OBJECT_ID": "2007-001A", "EPOCH": "2025-12-26T04:23:30.422400", "MEAN_MOTION": 14.85689254, "ECCENTRICITY": 0.0013123, "INCLINATION": 98.1266, "RA_OF_ASC_NODE": 350.6164, "ARG_OF_PERICENTER": 34.0239, "MEAN_ANOMALY": 326.1814, "EPHEMERIS_TYPE": 0, "CLASSIFICATION_TYPE": "U", "NORAD_CAT_ID": 29709, "ELEMENT_SET_NO": 999, "REV_AT_EPOCH": 2546, "BSTAR": 7.4528e-05, "MEAN_MOTION_DOT": 5.9e-06, "MEAN_MOTION_DDOT": 0}, "tle": {"line1": "1 29709U 07001A   25360.18299100  .00000590  00000+0  74528-4 0  9994", "line2": "2 29709  98.1266 350.6164 0013123  34.0239 326.1814 14.85689254 25461"}}, "geometry": {"type": "Point", "coordinates": [162.86087583048345, -44.01570320275976]}}, {"type": "Feature", "properties": {"norad_id": 31113, "name": "HAIYANG-1B", "group": "resource", "lat": -48.521761785133826, "lon": -6.380712731562801, "alt_km": 788.800224958477, "timestamp": "2025-12-26T08:37:54.226471+00:00", "meta": {"OBJECT_NAME": "HAIYANG-1B", "OBJECT_ID": "2007-010A", "EPOCH": "2025-12-25T22:47:30.795072", "MEAN_MOTION": 14.30969243, "ECCENTRICITY": 0.0013551, "INCLINATION": 98.3331, "RA_OF_ASC_NODE": 343.6829, "ARG_OF_PERICENTER": 359.9847, "MEAN_ANOMALY": 0.1334, "EPHEMERIS_TYPE": 0, "CLASSIFICATION_TYPE": "U", "NORAD_CAT_ID": 31113, "ELEMENT_SET_NO": 999, "REV_AT_EPOCH": 97585, "BSTAR": 6.0325e-05, "MEAN_MOTION_DOT": 1.17e-06, "MEAN_MOTION_DDOT": 0}, "tle": {"line1": "1 31113U 07010A   25359.94966198  .00000117  00000+0  60325-4 0  9991", "line2": "2 31113  98.3331 343.6829 0013551 359.9847   0.1334 14.30969243975859"}}, "geometry": {"type": "Point", "coordinates": [-6.380712731562801, -48.521761785133826]}}, {"type": "Feature", "properties": {"norad_id": 31598, "name": "COSMO-SKYMED 1", "group": "resource", "lat": -43.05280065640085, "lon": -166.712934851385, "alt_km": 586.7762113881345, "timestamp": "2025-12-26T08:37:54.226481+00:00", "meta": {"OBJECT_NAME": "COSMO-SKYMED 1", "OBJECT_ID": "2007-023A", "EPOCH": "2025-12-25T23:11:37.091328", "MEAN_MOTION": 14.95861375, "ECCENTRICITY": 0.00011837, "INCLINATION": 97.8839, "RA_OF_ASC_NODE": 185.4531, "ARG_OF_PERICENTER": 77.1821, "MEAN_ANOMALY": 282.9532, "EPHEMERIS_TYPE": 0, "CLASSIFICATION_TYPE": "U", "NORAD_CAT_ID": 31598, "ELEMENT_SET_NO": 999, "REV_AT_EPOCH": 388, "BSTAR": 0.00028394322, "MEAN_MOTION_DOT": 3.114e-05, "MEAN_MOTION_DDOT": 0}, "tle": {"line1": "1 31598U 07023A   25359.96640152  .00003114  00000+0  28394-3 0  9992", "line2": "2 31598  97.8839 185.4531 0001183  77.1821 282.9532 14.95861375  3887"}}, "geometry": {"type": "Point", "coordinates": [-166.712934851385, -43.05280065640085]}}, {"type": "Feature", "properties": {"norad_id": 31698, "name": "TERRASAR-X", "group": "resource", "lat": 33.984209022004435, "lon": 0.48404125169370665, "alt_km": 505.3564446888013, "timestamp": "2025-12-26T08:37:54.226492+00:00", "meta": {"OBJECT_NAME": "TERRASAR-X", "OBJECT_ID": "2007-026A", "EPOCH": "2025-12-25T13:30:40.378176", "MEAN_MOTION": 15.19155603, "ECCENTRICITY": 0.0001851, "INCLINATION": 97.4447, "RA_OF_ASC_NODE": 4.756, "ARG_OF_PERICENTER": 79.9289, "MEAN_ANOMALY": 280.2154, "EPHEMERIS_TYPE": 0, "CLASSIFICATION_TYPE": "U", "NORAD_CAT_ID": 31698, "ELEMENT_SET_NO": 999, "REV_AT_EPOCH": 2686, "BSTAR": 7.0738e-05, "MEAN_MOTION_DOT": 1.419e-05, "MEAN_MOTION_DDOT": 0}, "tle": {"line1": "1 31698U 07026A   25359.56296734  .00001419  00000+0  70738-4 0  9991", "line2": "2 31698  97.4447   4.7560 0001851  79.9289 280.2154 15.19155603 26865"}}, "geometry": {"type": "Point", "coordinates": [0.48404125169370665, 33.984209022004435]}}, {"type": "Feature", "properties": {"norad_id": 32060, "name": "WORLDVIEW-1 (WV-1)", "group": "resource", "lat": -68.83633124870093, "lon": 137.20581192996616, "alt_km": 500.10776056584746, "timestamp": "2025-12-26T08:37:54.226502+00:00", "meta": {"OBJECT_NAME": "WORLDVIEW-1 (WV-1)", "OBJECT_ID": "2007-041A", "EPOCH": "2025-12-25T21:54:28.538784", "MEAN_MOTION": 15.23970328, "ECCENTRICITY": 0.000309, "INCLINATION": 97.3821, "RA_OF_ASC_NODE": 117.2002, "ARG_OF_PERICENTER": 352.1251, "MEAN_ANOMALY": 7.9937, "EPHEMERIS_TYPE": 0, "CLASSIFICATION_TYPE": "U", "NORAD_CAT_ID": 32060, "ELEMENT_SET_NO": 999, "REV_AT_EPOCH": 1648, "BSTAR": 0.00033312, "MEAN_MOTION_DOT": 7.994e-05, "MEAN_MOTION_DDOT": 0}, "tle": {"line1": "1 32060U 07041A   25359.91283031  .00007994  00000+0  33312-3 0  9997", "line2": "2 32060  97.3821 117.2002 0003090 352.1251   7.9937 15.23970328 16481"}}, "geometry": {"type": "Point", "coordinates": [137.20581192996616, -68.83633124870093]}}]}